{
    "links": {
        "self": "http://www.neowsapp.com/rest/v1/neo/3273784?api_key=iIulBulltgU6a56xZRHN4H3l9WmuAYTsLGpBGhQ2"
    },
    "id": "3273784",
    "neo_reference_id": "3273784",
    "name": "(2005 EM70)",
    "designation": "2005 EM70",
    "nasa_jpl_url": "http://ssd.jpl.nasa.gov/sbdb.cgi?sstr=3273784",
    "absolute_magnitude_h": 24.8,
    "estimated_diameter": {
        "kilometers": {
            "estimated_diameter_min": 0.0291443905,
            "estimated_diameter_max": 0.0651688382
        },
        "meters": {
            "estimated_diameter_min": 29.1443904535,
            "estimated_diameter_max": 65.1688382168
        },
        "miles": {
            "estimated_diameter_min": 0.018109479,
            "estimated_diameter_max": 0.0404940262
        },
        "feet": {
            "estimated_diameter_min": 95.6180819754,
            "estimated_diameter_max": 213.8085311752
        }
    },
    "is_potentially_hazardous_asteroid": false,
    "close_approach_data": [
        {
            "close_approach_date": "2005-03-02",
            "close_approach_date_full": "2005-Mar-02 17:57",
            "epoch_date_close_approach": 1109786220000,
            "relative_velocity": {
                "kilometers_per_second": "11.8700828755",
                "kilometers_per_hour": "42732.2983518914",
                "miles_per_hour": "26552.1883842628"
            },
            "miss_distance": {
                "astronomical": "0.0643760244",
                "lunar": "25.0422734916",
                "kilometers": "9630516.129308028",
                "miles": "5984125.2351776664"
            },
            "orbiting_body": "Earth"
        }
    ],
    "orbital_data": {
        "orbit_id": "6",
        "orbit_determination_date": "2017-04-06 09:11:21",
        "first_observation_date": "2005-03-08",
        "last_observation_date": "2005-03-10",
        "data_arc_in_days": 2,
        "observations_used": 16,
        "orbit_uncertainty": "9",
        "minimum_orbit_intersection": ".0636018",
        "jupiter_tisserand_invariant": "4.216",
        "epoch_osculation": "2453438.5",
        "eccentricity": ".3888389135450248",
        "semi_major_axis": "1.603740083170019",
        "inclination": "18.31407576102029",
        "ascending_node_longitude": "348.1594274235335",
        "orbital_period": "741.8214769704271",
        "perihelion_distance": ".980143531621581",
        "perihelion_argument": "134.9649308704616",
        "aphelion_distance": "2.227336634718456",
        "perihelion_time": "2453397.938230169142",
        "mean_anomaly": "19.68430086271417",
        "mean_motion": ".4852919619828579",
        "equinox": "J2000",
        "orbit_class": {
            "orbit_class_type": "APO",
            "orbit_class_description": "Near-Earth asteroid orbits which cross the Earth’s orbit similar to that of 1862 Apollo",
            "orbit_class_range": "a (semi-major axis) > 1.0 AU; q (perihelion) < 1.017 AU"
        }
    },
    "is_sentry_object": false
}